{"type":"FeatureCollection","features":[{"type":"Feature","properties":{},"geometry":{"type":"Polygon","coordinates":[[[-57.0618,-30.0896],[-57.0618,-30.0876],[-57.0669,-30.0854],[-57.0711,-30.0867],[-57.0737,-30.09],[-57.0821,-30.0946],[-57.087,-30.1009],[-57.0872,-30.1059],[-57.092,-30.1102],[-57.0915,-30.113],[-57.0885,-30.113],[-57.087,-30.1106],[-57.0844,-30.1127],[-57.0874,-30.1185],[-57.0907,-30.1211],[-57.0954,-30.1208],[-57.0958,-30.1145],[-57.1058,-30.115],[-57.1081,-30.1165],[-57.1161,-30.114],[-57.1165,-30.1204],[-57.1142,-30.1269],[-57.1102,-30.1287],[-57.1077,-30.1252],[-57.1046,-30.1257],[-57.1071,-30.1328],[-57.1059,-30.1353],[-57.1112,-30.1428],[-57.1166,-30.1455],[-57.1199,-30.1448],[-57.1229,-30.1409],[-57.1296,-30.1414],[-57.1351,-30.1579],[-57.1442,-30.1662],[-57.1452,-30.173],[-57.1586,-30.1853],[-57.1593,-30.1932],[-57.168,-30.1981],[-57.1668,-30.2052],[-57.1682,-30.2085],[-57.1642,-30.2131],[-57.1677,-30.2175],[-57.1624,-30.2189],[-57.1655,-30.2236],[-57.1636,-30.2271],[-57.1553,-30.2325],[-57.1553,-30.2345],[-57.161,-30.2419],[-57.163,-30.243],[-57.1662,-30.2415],[-57.1679,-30.2423],[-57.1687,-30.2446],[-57.167,-30.2476],[-57.1683,-30.2494],[-57.1773,-30.2516],[-57.1961,-30.2649],[-57.203,-30.2849],[-57.2097,-30.285],[-57.217,-30.2887],[-57.2495,-30.2893],[-57.2551,-30.2816],[-57.2527,-30.2738],[-57.258,-30.2673],[-57.2598,-30.2672],[-57.2684,-30.2717],[-57.27,-30.2789],[-57.2686,-30.2832],[-57.27,-30.2852],[-57.2749,-30.2875],[-57.279,-30.2934],[-57.283,-30.2943],[-57.292,-30.2876],[-57.299,-30.2777],[-57.3057,-30.264],[-57.3102,-30.259],[-57.3135,-30.2578],[-57.317,-30.2602],[-57.3189,-30.2682],[-57.321,-30.271],[-57.3417,-30.2773],[-57.353,-30.285],[-57.3579,-30.2822],[-57.3589,-30.2728],[-57.3652,-30.2713],[-57.3727,-30.2749],[-57.3798,-30.2807],[-57.3892,-30.2959],[-57.3896,-30.3028],[-57.3923,-30.3047],[-57.3977,-30.3045],[-57.4031,-30.3011],[-57.4092,-30.3003],[-57.4203,-30.3021],[-57.4219,-30.2993],[-57.4217,-30.2909],[-57.4192,-30.285],[-57.4148,-30.2815],[-57.4163,-30.2783],[-57.4303,-30.2748],[-57.4516,-30.2761],[-57.4565,-30.2735],[-57.4605,-30.2679],[-57.4649,-30.2661],[-57.4883,-30.2679],[-57.4947,-30.2781],[-57.4976,-30.2874],[-57.5007,-30.2892],[-57.5123,-30.2852],[-57.5243,-30.2857],[-57.5497,-30.2737],[-57.555,-30.2651],[-57.5665,-30.259],[-57.5676,-30.2517],[-57.5556,-30.2299],[-57.5559,-30.2236],[-57.5609,-30.2113],[-57.5666,-30.2076],[-57.6072,-30.1901],[-57.6271,-30.187],[-57.6368,-30.1888],[-57.6474,-30.1948],[-57.6492,-30.1989],[-57.6484,-30.2046],[-57.6414,-30.217],[-57.62,-30.2417],[-57.6156,-30.2525],[-57.6182,-30.2635],[-57.6284,-30.2888],[-57.6369,-30.332],[-57.6478,-30.349],[-57.6689,-30.3671],[-57.7067,-30.3929],[-57.7726,-30.4236],[-57.7919,-30.4458],[-57.7988,-30.4505],[-57.8592,-30.477],[-57.8856,-30.501],[-57.8914,-30.5103],[-57.8927,-30.5205],[-57.8865,-30.5458],[-57.8854,-30.5606],[-57.8885,-30.5742],[-57.887,-30.5819],[-57.8852,-30.5858],[-57.8781,-30.5924],[-57.8596,-30.6022],[-57.8524,-30.607],[-57.8471,-30.6126],[-57.841,-30.6293],[-57.8336,-30.6667],[-57.831,-30.6711],[-57.8164,-30.6821],[-57.8093,-30.6944],[-57.8038,-30.7092],[-57.8104,-30.7357],[-57.8081,-30.7545],[-57.8013,-30.7784],[-57.802,-30.8188],[-57.8058,-30.8835],[-57.8096,-30.9133],[-57.8155,-30.9221],[-57.8227,-30.9255],[-57.8742,-30.9208],[-57.8886,-30.9235],[-57.9011,-30.9321],[-57.9071,-30.9452],[-57.9071,-30.9532],[-57.9031,-30.9623],[-57.8953,-30.9719],[-57.8877,-30.9772],[-57.8813,-30.9843],[-57.8755,-30.9932],[-57.8663,-31.0193],[-57.8649,-31.0378],[-57.8697,-31.0639],[-57.8792,-31.0882],[-57.8881,-31.0977],[-57.903,-31.1088],[-57.9083,-31.1185],[-57.9121,-31.1361],[-57.9131,-31.1513],[-57.9117,-31.1784],[-57.9071,-31.2045],[-57.9079,-31.2126],[-57.9125,-31.2233],[-57.9291,-31.2516],[-57.9392,-31.2761],[-57.9574,-31.2974],[-57.9811,-31.3191],[-57.982,-31.3359],[-57.9968,-31.361],[-57.9959,-31.3636],[-57.9914,-31.3648],[-57.9874,-31.3718],[-57.979,-31.3797],[-57.9803,-31.3877],[-57.9955,-31.4001],[-58.0178,-31.4147],[-58.0355,-31.4219],[-58.0585,-31.4345],[-58.079,-31.4516],[-58.082,-31.4565],[-58.0826,-31.4776],[-58.0806,-31.4848],[-58.0768,-31.4903],[-58.0649,-31.4982],[-58.0278,-31.5127],[-58.004,-31.529],[-58.003,-31.5351],[-58.0046,-31.5423],[-57.9881,-31.5612],[-57.9806,-31.5784],[-57.9819,-31.5909],[-57.9947,-31.6208],[-58.0016,-31.6453],[-58.008,-31.6596],[-58.0087,-31.6688],[-58.0129,-31.6842],[-58.0335,-31.7124],[-58.0352,-31.7168],[-58.0394,-31.7362],[-58.0371,-31.7519],[-58.0388,-31.7576],[-58.0509,-31.7715],[-58.0676,-31.7995],[-58.0857,-31.8193],[-58.1445,-31.8338],[-58.1667,-31.8428],[-58.1878,-31.8495],[-58.1969,-31.855],[-58.2043,-31.8639],[-58.207,-31.8698],[-58.1941,-31.9105],[-58.1707,-31.9275],[-58.1665,-31.9332],[-58.1568,-31.9539],[-58.1512,-31.9818],[-58.1385,-32.001],[-58.1398,-32.0104],[-58.1378,-32.0244],[-58.1428,-32.0565],[-58.1499,-32.0724],[-58.1533,-32.0767],[-58.164,-32.0839],[-58.1673,-32.0883],[-58.182,-32.1426],[-58.1837,-32.155],[-58.174,-32.1697],[-58.1482,-32.195],[-58.1246,-32.2236],[-58.1064,-32.24],[-58.1026,-32.2458],[-58.1001,-32.2552],[-58.0985,-32.2859],[-58.1003,-32.2984],[-58.104,-32.3084],[-58.1234,-32.3383],[-58.1432,-32.3495],[-58.168,-32.3576],[-58.1823,-32.3722],[-58.1845,-32.3774],[-58.1852,-32.3933],[-58.1948,-32.4111],[-58.1967,-32.4318],[-58.204,-32.4533],[-58.2046,-32.4605],[-58.1965,-32.4789],[-58.1956,-32.4918],[-58.1875,-32.5134],[-58.1877,-32.5298],[-58.184,-32.5353],[-58.1713,-32.5471],[-58.1605,-32.5685],[-58.161,-32.5915],[-58.1506,-32.6246],[-58.1497,-32.6292],[-58.1517,-32.6397],[-58.1451,-32.6684],[-58.1448,-32.6773],[-58.1485,-32.6959],[-58.1504,-32.727],[-58.1494,-32.7338],[-58.1457,-32.7462],[-58.1395,-32.7542],[-58.1337,-32.7837],[-58.1232,-32.8028],[-58.1193,-32.8152],[-58.1244,-32.8327],[-58.1223,-32.8606],[-58.1156,-32.8783],[-58.1171,-32.8987],[-58.1163,-32.9144],[-58.1115,-32.9279],[-58.1051,-32.9376],[-58.0973,-32.9471],[-58.0896,-32.9529],[-58.0871,-32.9572],[-58.0885,-32.9689],[-58.0841,-32.9978],[-58.0882,-33.0072],[-58.0974,-33.0165],[-58.109,-33.0249],[-58.1422,-33.0401],[-58.1695,-33.07],[-58.1781,-33.0751],[-58.2569,-33.0999],[-58.2757,-33.1024],[-58.3029,-33.1018],[-58.3134,-33.103],[-58.3488,-33.113],[-58.3639,-33.1195],[-58.3713,-33.1273],[-58.3856,-33.1535],[-58.4038,-33.1755],[-58.4058,-33.2037],[-58.41,-33.2322],[-58.3964,-33.2559],[-58.3904,-33.2762],[-58.3952,-33.2891],[-58.3971,-33.3105],[-58.4058,-33.3262],[-58.432,-33.3612],[-58.4314,-33.4108],[-58.4433,-33.4464],[-58.4337,-33.4954],[-58.4453,-33.5388],[-58.4796,-33.5629],[-58.4938,-33.5786],[-58.4948,-33.5818],[-58.476,-33.6462],[-58.4479,-33.6842],[-58.4342,-33.7207],[-58.4378,-33.7592],[-58.434,-33.8256],[-58.4228,-33.9163],[-58.4154,-33.9162],[-58.4091,-33.9192],[-58.4043,-33.9246],[-58.3947,-33.9303],[-58.384,-33.9432],[-58.369,-33.9469],[-58.3709,-33.9481],[-58.3688,-33.9517],[-58.3665,-33.9521],[-58.3645,-33.9503],[-58.3611,-33.9511],[-58.3588,-33.9536],[-58.3602,-33.9554],[-58.3577,-33.9579],[-58.3467,-33.9616],[-58.3417,-33.9648],[-58.329,-33.9677],[-58.3237,-33.9774],[-58.3176,-33.9818],[-58.3164,-33.9847],[-58.308,-33.9924],[-58.305,-34.0003],[-58.3007,-34.0021],[-58.3009,-34.0042],[-58.2989,-34.0048],[-58.3002,-34.0073],[-58.2976,-34.0081],[-58.2924,-34.0142],[-58.2903,-34.0227],[-58.2921,-34.0266],[-58.2805,-34.0307],[-58.2732,-34.0354],[-58.2709,-34.0389],[-58.2645,-34.0418],[-58.2337,-34.0732],[-58.2203,-34.0973],[-58.2185,-34.1093],[-58.2198,-34.1148],[-58.2162,-34.1176],[-58.2141,-34.1233],[-58.2149,-34.1333],[-58.2182,-34.1362],[-58.2177,-34.1392],[-58.2216,-34.1423],[-58.2197,-34.1464],[-58.2237,-34.1502],[-58.2178,-34.1524],[-58.2108,-34.1617],[-58.21,-34.1653],[-58.1924,-34.1634],[-58.18,-34.1639],[-58.1751,-34.1657],[-58.1514,-34.1652],[-58.1469,-34.1671],[-58.1058,-34.1742],[-58.091,-34.1807],[-58.0794,-34.1867],[-58.0738,-34.1917],[-58.0739,-34.1952],[-58.07,-34.2037],[-58.0752,-34.2063],[-58.0674,-34.2084],[-58.0627,-34.2144],[-58.0617,-34.2217],[-58.0659,-34.2259],[-58.0655,-34.2296],[-58.0623,-34.2304],[-58.0616,-34.2337],[-58.0486,-34.2332],[-58.0412,-34.2355],[-58.0337,-34.2406],[-58.0331,-34.2462],[-58.0192,-34.249],[-58.0184,-34.2504],[-58.0094,-34.253],[-58.0029,-34.2569],[-58.0031,-34.2586],[-57.9963,-34.2615],[-57.9954,-34.2679],[-57.9923,-34.2679],[-57.9899,-34.2703],[-57.9871,-34.2695],[-57.9847,-34.2742],[-57.9873,-34.2754],[-57.9872,-34.277],[-57.9645,-34.2977],[-57.9567,-34.303],[-57.9438,-34.3207],[-57.9429,-34.3242],[-57.9339,-34.3326],[-57.9333,-34.3362],[-57.9203,-34.3456],[-57.9042,-34.3659],[-57.8967,-34.3789],[-57.8967,-34.3855],[-57.8936,-34.3962],[-57.8944,-34.4053],[-57.8928,-34.4159],[-57.895,-34.426],[-57.8829,-34.4382],[-57.8617,-34.4437],[-57.8518,-34.4492],[-57.8476,-34.4535],[-57.844,-34.4612],[-57.8479,-34.4686],[-57.852,-34.4685],[-57.8531,-34.4697],[-57.854,-34.4677],[-57.8537,-34.4734],[-57.8456,-34.474],[-57.8448,-34.476],[-57.8447,-34.4749],[-57.8426,-34.475],[-57.8429,-34.4762],[-57.8391,-34.4727],[-57.8371,-34.4738],[-57.8306,-34.4729],[-57.8289,-34.4749],[-57.8234,-34.4748],[-57.8162,-34.4715],[-57.8066,-34.4728],[-57.7893,-34.4666],[-57.7814,-34.4676],[-57.7791,-34.4696],[-57.779,-34.4725],[-57.7734,-34.472],[-57.7702,-34.4696],[-57.7599,-34.4688],[-57.7601,-34.4667],[-57.757,-34.4641],[-57.7429,-34.4577],[-57.7365,-34.4561],[-57.7287,-34.4566],[-57.7243,-34.4595],[-57.725,-34.4627],[-57.7207,-34.4622],[-57.7051,-34.455],[-57.6813,-34.447],[-57.6764,-34.4465],[-57.6689,-34.4488],[-57.6532,-34.4397],[-57.6427,-34.4387],[-57.6119,-34.4278],[-57.5913,-34.4251],[-57.5821,-34.4251],[-57.5679,-34.4304],[-57.5621,-34.4339],[-57.5591,-34.438],[-57.5573,-34.438],[-57.5553,-34.4406],[-57.5554,-34.4449],[-57.5511,-34.4462],[-57.5508,-34.448],[-57.5468,-34.4476],[-57.5428,-34.4532],[-57.5403,-34.4531],[-57.5372,-34.4553],[-57.5335,-34.454],[-57.5331,-34.4522],[-57.5272,-34.4482],[-57.5023,-34.4376],[-57.4805,-34.4297],[-57.4669,-34.4272],[-57.4567,-34.428],[-57.4457,-34.4328],[-57.4427,-34.4395],[-57.4456,-34.4413],[-57.4418,-34.4425],[-57.4308,-34.4398],[-57.4197,-34.4341],[-57.4076,-34.4302],[-57.3893,-34.427],[-57.3553,-34.43],[-57.3506,-34.4324],[-57.3516,-34.4382],[-57.3419,-34.4413],[-57.3234,-34.4426],[-57.2958,-34.4371],[-57.2703,-34.4355],[-57.2164,-34.4376],[-57.1525,-34.4466],[-57.1526,-34.4488],[-57.1428,-34.448],[-57.134,-34.4499],[-57.1104,-34.4631],[-57.1078,-34.4618],[-57.1099,-34.4642],[-57.0896,-34.4796],[-57.0835,-34.4874],[-57.0798,-34.4959],[-57.07,-34.5074],[-57.0644,-34.5215],[-57.0596,-34.5268],[-57.047,-34.5348],[-57.0138,-34.55],[-57.0041,-34.5565],[-57.0029,-34.5567],[-57.001,-34.5545],[-56.9992,-34.5547],[-56.9986,-34.5554],[-57.0007,-34.5551],[-57.0034,-34.5579],[-56.9838,-34.5702],[-56.9564,-34.5944],[-56.9548,-34.5976],[-56.9105,-34.6276],[-56.9012,-34.6402],[-56.8986,-34.6513],[-56.895,-34.6556],[-56.8847,-34.6602],[-56.8403,-34.6738],[-56.8275,-34.6801],[-56.8219,-34.6875],[-56.8192,-34.6888],[-56.7888,-34.694],[-56.7319,-34.7009],[-56.6983,-34.7085],[-56.6758,-34.7115],[-56.6439,-34.7201],[-56.6239,-34.7276],[-56.6111,-34.7345],[-56.5823,-34.7464],[-56.5593,-34.7594],[-56.5539,-34.7596],[-56.5291,-34.7532],[-56.5032,-34.7503],[-56.4799,-34.7505],[-56.4623,-34.7524],[-56.4559,-34.7515],[-56.439,-34.7568],[-56.4115,-34.7709],[-56.408,-34.7714],[-56.4059,-34.7701],[-56.4043,-34.7722],[-56.404,-34.7712],[-56.4,-34.772],[-56.388,-34.7766],[-56.3874,-34.7754],[-56.3831,-34.7762],[-56.378,-34.7826],[-56.3564,-34.7819],[-56.3547,-34.79],[-56.3579,-34.7933],[-56.3566,-34.7943],[-56.361,-34.7954],[-56.3631,-34.7989],[-56.3888,-34.798],[-56.3896,-34.8006],[-56.3942,-34.8035],[-56.4057,-34.8081],[-56.4044,-34.8101],[-56.4069,-34.8117],[-56.4071,-34.8145],[-56.41,-34.8148],[-56.409,-34.8168],[-56.4136,-34.8174],[-56.4186,-34.8225],[-56.4216,-34.8225],[-56.4269,-34.8269],[-56.4313,-34.828],[-56.4307,-34.8307],[-56.4291,-34.8309],[-56.4291,-34.8347],[-56.4188,-34.8397],[-56.413,-34.8397],[-56.4112,-34.8413],[-56.4013,-34.8421],[-56.3993,-34.844],[-56.3906,-34.8452],[-56.3883,-34.8501],[-56.3811,-34.8521],[-56.3813,-34.856],[-56.376,-34.8585],[-56.377,-34.8605],[-56.3671,-34.863],[-56.3675,-34.8652],[-56.362,-34.8653],[-56.3587,-34.8669],[-56.3556,-34.8661],[-56.3544,-34.8675],[-56.3557,-34.8691],[-56.3538,-34.8688],[-56.3523,-34.8708],[-56.3537,-34.8689],[-56.3517,-34.869],[-56.3515,-34.8664],[-56.3465,-34.8707],[-56.3401,-34.8707],[-56.3318,-34.881],[-56.3336,-34.8862],[-56.331,-34.8879],[-56.3317,-34.8903],[-56.3255,-34.8914],[-56.3164,-34.8975],[-56.3139,-34.9018],[-56.3159,-34.9045],[-56.312,-34.9056],[-56.3084,-34.9024],[-56.3115,-34.9009],[-56.3095,-34.8971],[-56.3073,-34.8975],[-56.3017,-34.8937],[-56.2967,-34.8931],[-56.2929,-34.896],[-56.2899,-34.8944],[-56.2875,-34.8967],[-56.2892,-34.8997],[-56.2845,-34.9001],[-56.2861,-34.8966],[-56.2815,-34.8946],[-56.2773,-34.897],[-56.277,-34.8983],[-56.2791,-34.8992],[-56.2758,-34.9022],[-56.2727,-34.8984],[-56.2706,-34.8981],[-56.2676,-34.9018],[-56.2603,-34.9037],[-56.2607,-34.906],[-56.2564,-34.9061],[-56.2582,-34.8995],[-56.2552,-34.8992],[-56.2534,-34.8968],[-56.2447,-34.8961],[-56.2453,-34.8861],[-56.2437,-34.8833],[-56.2473,-34.8811],[-56.2468,-34.8773],[-56.2401,-34.8763],[-56.2337,-34.8803],[-56.2328,-34.8787],[-56.2299,-34.8798],[-56.2259,-34.8728],[-56.219,-34.874],[-56.2187,-34.8775],[-56.2179,-34.8739],[-56.2155,-34.8739],[-56.205,-34.8799],[-56.2021,-34.8836],[-56.2001,-34.8828],[-56.1988,-34.884],[-56.1984,-34.8876],[-56.2039,-34.8886],[-56.2027,-34.8911],[-56.2006,-34.8914],[-56.2017,-34.893],[-56.1977,-34.8916],[-56.1986,-34.8938],[-56.1972,-34.8968],[-56.1992,-34.8965],[-56.198,-34.8991],[-56.2004,-34.9001],[-56.2046,-34.9008],[-56.2075,-34.899],[-56.209,-34.8997],[-56.2065,-34.9014],[-56.2116,-34.903],[-56.2147,-34.9014],[-56.2132,-34.9046],[-56.2171,-34.903],[-56.223,-34.906],[-56.2219,-34.9075],[-56.2205,-34.9068],[-56.2167,-34.9086],[-56.2181,-34.9092],[-56.2173,-34.9115],[-56.223,-34.9135],[-56.2148,-34.9109],[-56.2094,-34.912],[-56.2028,-34.9104],[-56.2001,-34.911],[-56.1997,-34.9126],[-56.1935,-34.9129],[-56.1852,-34.9161],[-56.1715,-34.9148],[-56.17,-34.9177],[-56.1724,-34.92],[-56.1711,-34.9214],[-56.1721,-34.9244],[-56.1607,-34.9302],[-56.1603,-34.9326],[-56.162,-34.9325],[-56.1631,-34.9334],[-56.1639,-34.9323],[-56.1636,-34.9334],[-56.162,-34.9337],[-56.161,-34.935],[-56.1605,-34.9381],[-56.1578,-34.9277],[-56.1512,-34.9248],[-56.1515,-34.9231],[-56.1456,-34.9198],[-56.1484,-34.9178],[-56.1459,-34.913],[-56.1411,-34.9104],[-56.1383,-34.9121],[-56.1301,-34.9112],[-56.1277,-34.9091],[-56.1323,-34.9098],[-56.1318,-34.9055],[-56.1252,-34.9056],[-56.123,-34.904],[-56.1229,-34.9014],[-56.1192,-34.8987],[-56.1048,-34.8973],[-56.1016,-34.8982],[-56.1012,-34.8998],[-56.0988,-34.8975],[-56.0905,-34.8956],[-56.0853,-34.8959],[-56.0822,-34.9005],[-56.0759,-34.8978],[-56.0717,-34.8999],[-56.0646,-34.8997],[-56.0519,-34.8909],[-56.0244,-34.8789],[-55.9707,-34.8466],[-55.9596,-34.8416],[-55.9532,-34.8369],[-55.9482,-34.836],[-55.9197,-34.8187],[-55.8803,-34.7998],[-55.8677,-34.7961],[-55.8574,-34.7958],[-55.8234,-34.7815],[-55.7911,-34.7721],[-55.7826,-34.7711],[-55.772,-34.7724],[-55.7641,-34.7763],[-55.7622,-34.7817],[-55.7554,-34.7804],[-55.7521,-34.7813],[-55.7169,-34.7683],[-55.697,-34.7633],[-55.6848,-34.7618],[-55.6727,-34.7632],[-55.6632,-34.7673],[-55.6585,-34.7712],[-55.6578,-34.7744],[-55.6506,-34.7796],[-55.6255,-34.7733],[-55.6013,-34.772],[-55.5834,-34.7781],[-55.5777,-34.7829],[-55.5626,-34.7847],[-55.555,-34.7899],[-55.5459,-34.7898],[-55.537,-34.7931],[-55.5341,-34.7965],[-55.5295,-34.796],[-55.5282,-34.7978],[-55.5036,-34.7943],[-55.4988,-34.7959],[-55.4974,-34.7984],[-55.493,-34.7989],[-55.4612,-34.7942],[-55.4103,-34.7901],[-55.3884,-34.7944],[-55.3852,-34.7982],[-55.3852,-34.8023],[-55.3664,-34.8034],[-55.3481,-34.8077],[-55.332,-34.8148],[-55.3186,-34.8241],[-55.3111,-34.8378],[-55.3023,-34.8437],[-55.3044,-34.85],[-55.3025,-34.8557],[-55.3009,-34.8548],[-55.2933,-34.8564],[-55.2795,-34.8644],[-55.2758,-34.8712],[-55.2789,-34.8748],[-55.2815,-34.8747],[-55.28,-34.8749],[-55.2802,-34.8771],[-55.2809,-34.8773],[-55.2829,-34.8756],[-55.2824,-34.8742],[-55.2831,-34.8753],[-55.2831,-34.8757],[-55.2817,-34.8772],[-55.2803,-34.8781],[-55.2791,-34.8823],[-55.2824,-34.8889],[-55.2791,-34.8905],[-55.2776,-34.8894],[-55.2726,-34.8899],[-55.2611,-34.8941],[-55.259,-34.897],[-55.2615,-34.9007],[-55.2612,-34.9045],[-55.2448,-34.9006],[-55.2409,-34.9014],[-55.2397,-34.9041],[-55.237,-34.9044],[-55.2291,-34.8989],[-55.2075,-34.891],[-55.1837,-34.8852],[-55.1634,-34.8821],[-55.1462,-34.8802],[-55.0922,-34.8778],[-55.0769,-34.8782],[-55.0635,-34.8803],[-55.0514,-34.8851],[-55.0407,-34.893],[-55.0409,-34.8973],[-55.045,-34.9008],[-55.0465,-34.9046],[-55.0454,-34.9087],[-55.0474,-34.9165],[-55.0435,-34.9116],[-55.0387,-34.9106],[-55.0206,-34.9103],[-55.0159,-34.9111],[-55.0152,-34.9127],[-55.0124,-34.9099],[-55.002,-34.9104],[-54.9809,-34.9164],[-54.965,-34.9261],[-54.9475,-34.9421],[-54.9416,-34.95],[-54.9413,-34.956],[-54.9463,-34.9594],[-54.9466,-34.9632],[-54.9496,-34.9646],[-54.9495,-34.9636],[-54.9517,-34.9638],[-54.9511,-34.9597],[-54.9521,-34.9637],[-54.9549,-34.9659],[-54.9544,-34.972],[-54.952,-34.9739],[-54.9477,-34.968],[-54.941,-34.9645],[-54.9392,-34.9655],[-54.9404,-34.9637],[-54.9379,-34.9597],[-54.9301,-34.9553],[-54.9216,-34.9478],[-54.884,-34.9265],[-54.8772,-34.9243],[-54.8757,-34.9252],[-54.8736,-34.9228],[-54.8663,-34.9203],[-54.8616,-34.917],[-54.8515,-34.9188],[-54.8409,-34.9114],[-54.8342,-34.9088],[-54.8287,-34.9075],[-54.8246,-34.9091],[-54.8126,-34.9051],[-54.8077,-34.905],[-54.7838,-34.8906],[-54.7424,-34.8695],[-54.7053,-34.8532],[-54.6836,-34.8454],[-54.6616,-34.8395],[-54.6494,-34.8391],[-54.6423,-34.8416],[-54.642,-34.8461],[-54.6349,-34.8485],[-54.6343,-34.8469],[-54.6315,-34.8468],[-54.6327,-34.8411],[-54.6274,-34.8333],[-54.6103,-34.8216],[-54.4693,-34.7568],[-54.4389,-34.744],[-54.3762,-34.7216],[-54.2899,-34.688],[-54.2716,-34.6832],[-54.2228,-34.6661],[-54.1984,-34.661],[-54.1883,-34.6605],[-54.1772,-34.662],[-54.1722,-34.6649],[-54.1628,-34.6654],[-54.1551,-34.6697],[-54.1521,-34.6691],[-54.15,-34.6649],[-54.1516,-34.6639],[-54.1512,-34.6572],[-54.1463,-34.6553],[-54.1442,-34.6584],[-54.1396,-34.6534],[-54.1423,-34.6547],[-54.1504,-34.6502],[-54.1541,-34.6437],[-54.1538,-34.634],[-54.1468,-34.6193],[-54.1355,-34.6054],[-54.1208,-34.5943],[-54.1208,-34.5881],[-54.1133,-34.5788],[-54.0814,-34.5542],[-53.9971,-34.5015],[-53.9369,-34.4682],[-53.8624,-34.43],[-53.8042,-34.4053],[-53.7919,-34.4028],[-53.7861,-34.4043],[-53.7857,-34.4078],[-53.7767,-34.4061],[-53.7766,-34.4017],[-53.7798,-34.4013],[-53.7822,-34.3948],[-53.7811,-34.3833],[-53.7763,-34.3732],[-53.765,-34.3595],[-53.7619,-34.3586],[-53.7645,-34.3575],[-53.7639,-34.3538],[-53.7669,-34.3546],[-53.7701,-34.3507],[-53.7701,-34.344],[-53.775,-34.344],[-53.7804,-34.3469],[-53.7858,-34.3438],[-53.7892,-34.338],[-53.7918,-34.3253],[-53.7895,-34.3038],[-53.7766,-34.2741],[-53.7614,-34.2534],[-53.739,-34.2269],[-53.6998,-34.185],[-53.6778,-34.1641],[-53.649,-34.1389],[-53.5768,-34.082],[-53.5568,-34.0691],[-53.5514,-34.0687],[-53.5501,-34.0658],[-53.552,-34.0654],[-53.5529,-34.0629],[-53.5508,-34.0588],[-53.5417,-34.0497],[-53.5339,-34.0445],[-53.5363,-34.045],[-53.5386,-34.0425],[-53.539,-34.0385],[-53.5357,-34.0319],[-53.5379,-34.0327],[-53.5409,-34.0312],[-53.5426,-34.0247],[-53.5384,-34.0135],[-53.5288,-34.0028],[-53.5342,-33.9996],[-53.5347,-33.9972],[-53.5331,-33.9902],[-53.5305,-33.9861],[-53.5284,-33.9858],[-53.5323,-33.9835],[-53.5312,-33.9784],[-53.5289,-33.9758],[-53.5306,-33.975],[-53.5304,-33.9725],[-53.516,-33.9535],[-53.5061,-33.9459],[-53.5111,-33.9414],[-53.5071,-33.9315],[-53.5081,-33.9254],[-53.5116,-33.9216],[-53.5116,-33.9149],[-53.5033,-33.8877],[-53.4766,-33.8488],[-53.4511,-33.8198],[-53.4192,-33.7867],[-53.3869,-33.7576],[-53.3694,-33.7444],[-53.3721,-33.7431],[-53.3809,-33.7477],[-53.3868,-33.7461],[-53.3903,-33.7497],[-53.395,-33.7511],[-53.3985,-33.7481],[-53.4026,-33.7497],[-53.4167,-33.7482],[-53.426,-33.7392],[-53.4305,-33.7395],[-53.4317,-33.7281],[-53.4359,-33.7244],[-53.4334,-33.7196],[-53.435,-33.715],[-53.4386,-33.7124],[-53.4367,-33.7064],[-53.4386,-33.7044],[-53.4364,-33.7011],[-53.4397,-33.698],[-53.442,-33.6997],[-53.4431,-33.6971],[-53.4417,-33.6969],[-53.4416,-33.6939],[-53.4395,-33.6935],[-53.5323,-33.6888],[-53.5289,-33.6879],[-53.5308,-33.6788],[-53.5243,-33.6744],[-53.5285,-33.6728],[-53.5285,-33.6682],[-53.5322,-33.6675],[-53.5332,-33.6618],[-53.5311,-33.6619],[-53.5307,-33.6595],[-53.5337,-33.6589],[-53.5311,-33.6565],[-53.534,-33.6515],[-53.5325,-33.6496],[-53.5355,-33.6495],[-53.5317,-33.6483],[-53.5317,-33.6455],[-53.5294,-33.6439],[-53.5317,-33.6408],[-53.5281,-33.6398],[-53.5297,-33.6333],[-53.527,-33.6315],[-53.5289,-33.6291],[-53.526,-33.6256],[-53.5365,-33.6135],[-53.5324,-33.61],[-53.5325,-33.6026],[-53.5338,-33.6098],[-53.5357,-33.6098],[-53.5381,-33.6125],[-53.5396,-33.6103],[-53.538,-33.6075],[-53.5403,-33.6048],[-53.5342,-33.5951],[-53.5344,-33.5918],[-53.536,-33.5931],[-53.5365,-33.5908],[-53.5347,-33.5856],[-53.5381,-33.5813],[-53.5363,-33.5758],[-53.5374,-33.5717],[-53.5292,-33.5593],[-53.5335,-33.5619],[-53.5355,-33.5609],[-53.54,-33.5507],[-53.5374,-33.5455],[-53.5324,-33.5433],[-53.5403,-33.5405],[-53.5433,-33.5373],[-53.5413,-33.5355],[-53.5446,-33.5292],[-53.5473,-33.5283],[-53.5432,-33.5214],[-53.5449,-33.5212],[-53.5456,-33.5228],[-53.5505,-33.5229],[-53.5499,-33.5213],[-53.5569,-33.5204],[-53.5687,-33.5109],[-53.5875,-33.4724],[-53.5897,-33.4591],[-53.5909,-33.4589],[-53.5904,-33.4555],[-53.595,-33.4461],[-53.5996,-33.426],[-53.5951,-33.403],[-53.5783,-33.3738],[-53.5701,-33.3655],[-53.5654,-33.3527],[-53.5657,-33.3512],[-53.5703,-33.3518],[-53.5745,-33.36],[-53.5789,-33.3643],[-53.5902,-33.3625],[-53.5984,-33.3582],[-53.6052,-33.3475],[-53.6056,-33.3436],[-53.6038,-33.3445],[-53.6012,-33.3417],[-53.6025,-33.3237],[-53.5989,-33.3132],[-53.5872,-33.2911],[-53.5795,-33.2862],[-53.5703,-33.2733],[-53.5698,-33.2619],[-53.5739,-33.2639],[-53.5748,-33.2706],[-53.5801,-33.2797],[-53.5851,-33.2814],[-53.5844,-33.2806],[-53.5893,-33.281],[-53.5997,-33.2782],[-53.6177,-33.2666],[-53.6367,-33.2487],[-53.6491,-33.2343],[-53.66,-33.2156],[-53.6641,-33.1983],[-53.663,-33.1872],[-53.6556,-33.1753],[-53.6497,-33.1718],[-53.6396,-33.1706],[-53.6134,-33.18],[-53.6059,-33.1794],[-53.6057,-33.1782],[-53.6135,-33.1711],[-53.6162,-33.1573],[-53.6188,-33.1562],[-53.6199,-33.1534],[-53.6183,-33.1523],[-53.6194,-33.1516],[-53.6239,-33.1536],[-53.6279,-33.1484],[-53.6256,-33.1449],[-53.6252,-33.1387],[-53.6272,-33.1395],[-53.6256,-33.1411],[-53.6271,-33.1438],[-53.6298,-33.1437],[-53.629,-33.1468],[-53.6316,-33.1496],[-53.634,-33.15],[-53.6341,-33.147],[-53.6397,-33.141],[-53.6436,-33.1336],[-53.6446,-33.1239],[-53.6433,-33.1211],[-53.6424,-33.1234],[-53.638,-33.1174],[-53.626,-33.1066],[-53.6074,-33.0967],[-53.6016,-33.0917],[-53.6017,-33.0899],[-53.6045,-33.0906],[-53.6042,-33.0895],[-53.6072,-33.0892],[-53.6089,-33.0856],[-53.6116,-33.0841],[-53.613,-33.0791],[-53.6155,-33.0764],[-53.6171,-33.0641],[-53.6215,-33.0603],[-53.6192,-33.0609],[-53.6153,-33.0517],[-53.61,-33.048],[-53.6041,-33.0461],[-53.5971,-33.0468],[-53.593,-33.0507],[-53.591,-33.0556],[-53.5897,-33.0539],[-53.5854,-33.055],[-53.5774,-33.0608],[-53.5765,-33.0634],[-53.5759,-33.0626],[-53.5755,-33.0711],[-53.573,-33.0743],[-53.5749,-33.076],[-53.5762,-33.0837],[-53.5782,-33.0842],[-53.5816,-33.0887],[-53.5892,-33.09],[-53.592,-33.0918],[-53.58,-33.0893],[-53.5705,-33.0854],[-53.5691,-33.0802],[-53.5705,-33.0847],[-53.5729,-33.0856],[-53.5706,-33.08],[-53.5688,-33.0795],[-53.572,-33.0714],[-53.5735,-33.0493],[-53.5723,-33.0432],[-53.5679,-33.041],[-53.5677,-33.0348],[-53.5654,-33.0351],[-53.5599,-33.028],[-53.538,-33.0172],[-53.5252,-33.0071],[-53.5256,-32.9945],[-53.5235,-32.9897],[-53.507,-32.9799],[-53.5047,-32.9608],[-53.4975,-32.9486],[-53.499,-32.9471],[-53.4931,-32.9494],[-53.4801,-32.9449],[-53.437,-32.9395],[-53.4117,-32.9383],[-53.3758,-32.94],[-53.3495,-32.939],[-53.3415,-32.9366],[-53.337,-32.9368],[-53.3326,-32.9346],[-53.3326,-32.933],[-53.3384,-32.9334],[-53.3366,-32.9327],[-53.3348,-32.9302],[-53.3305,-32.9333],[-53.3304,-32.9318],[-53.3334,-32.9301],[-53.3348,-32.9299],[-53.3362,-32.931],[-53.342,-32.9294],[-53.3458,-32.9343],[-53.3455,-32.9361],[-53.3507,-32.9372],[-53.3459,-32.9297],[-53.3471,-32.9289],[-53.3538,-32.9289],[-53.3576,-32.9317],[-53.3603,-32.9302],[-53.3707,-32.9315],[-53.3722,-32.9248],[-53.3695,-32.9205],[-53.3581,-32.9166],[-53.3475,-32.9088],[-53.3444,-32.9058],[-53.3463,-32.9025],[-53.3437,-32.903],[-53.343,-32.8997],[-53.3411,-32.8985],[-53.3399,-32.8987],[-53.3403,-32.9008],[-53.3354,-32.9014],[-53.333,-32.9004],[-53.327,-32.893],[-53.3231,-32.8939],[-53.3228,-32.8967],[-53.3205,-32.8952],[-53.3209,-32.8916],[-53.3294,-32.8925],[-53.3325,-32.8941],[-53.3367,-32.8931],[-53.3427,-32.8866],[-53.3476,-32.8887],[-53.3537,-32.888],[-53.3547,-32.8874],[-53.3533,-32.8846],[-53.3505,-32.8826],[-53.3434,-32.8808],[-53.3319,-32.8816],[-53.3124,-32.8694],[-53.3074,-32.8677],[-53.3048,-32.8716],[-53.3055,-32.8752],[-53.3117,-32.8804],[-53.3103,-32.8814],[-53.309,-32.8791],[-53.3027,-32.8765],[-53.3028,-32.8698],[-53.3055,-32.8628],[-53.3048,-32.8593],[-53.2961,-32.8527],[-53.2948,-32.8368],[-53.2929,-32.8356],[-53.293,-32.833],[-53.2978,-32.8257],[-53.3018,-32.8241],[-53.3092,-32.8078],[-53.3117,-32.7892],[-53.3086,-32.7756],[-53.3102,-32.7727],[-53.3079,-32.768],[-53.3016,-32.7606],[-53.2946,-32.7573],[-53.2786,-32.7532],[-53.2588,-32.7516],[-53.2536,-32.7361],[-53.2271,-32.7219],[-53.2088,-32.7167],[-53.1929,-32.7184],[-53.1841,-32.7162],[-53.1836,-32.7152],[-53.1858,-32.7143],[-53.1912,-32.716],[-53.189,-32.7121],[-53.1849,-32.7122],[-53.1904,-32.6976],[-53.1923,-32.6868],[-53.1896,-32.6638],[-53.1878,-32.6591],[-53.1823,-32.6531],[-53.184,-32.6472],[-53.1907,-32.6424],[-53.2087,-32.6404],[-53.2355,-32.631],[-53.2434,-32.6225],[-53.2472,-32.6067],[-53.2525,-32.6032],[-53.2709,-32.6048],[-53.2755,-32.609],[-53.2806,-32.6207],[-53.2908,-32.621],[-53.2944,-32.6187],[-53.3035,-32.6048],[-53.3213,-32.5957],[-53.3345,-32.5843],[-53.3378,-32.5847],[-53.3463,-32.5919],[-53.3499,-32.5926],[-53.355,-32.591],[-53.3581,-32.5879],[-53.3617,-32.5798],[-53.3702,-32.5697],[-53.3762,-32.5704],[-53.3786,-32.5721],[-53.3823,-32.5817],[-53.3863,-32.5865],[-53.3898,-32.5865],[-53.401,-32.5814],[-53.4058,-32.5788],[-53.4164,-32.5688],[-53.4171,-32.5621],[-53.4202,-32.5591],[-53.4251,-32.5585],[-53.4271,-32.5658],[-53.4307,-32.5665],[-53.4326,-32.5651],[-53.4334,-32.5563],[-53.4427,-32.5386],[-53.4498,-32.5282],[-53.4584,-32.521],[-53.4566,-32.5162],[-53.461,-32.5101],[-53.4633,-32.5028],[-53.4618,-32.4981],[-53.4661,-32.4932],[-53.4626,-32.4876],[-53.4642,-32.4845],[-53.4709,-32.4807],[-53.48,-32.4841],[-53.4996,-32.481],[-53.5077,-32.4832],[-53.5123,-32.4885],[-53.515,-32.489],[-53.5176,-32.4872],[-53.5152,-32.4832],[-53.5203,-32.4811],[-53.5232,-32.4828],[-53.5221,-32.4862],[-53.5235,-32.488],[-53.5277,-32.4885],[-53.53,-32.483],[-53.5435,-32.4791],[-53.54,-32.4751],[-53.5409,-32.4729],[-53.5522,-32.4742],[-53.5552,-32.4734],[-53.5623,-32.4662],[-53.5671,-32.4585],[-53.5832,-32.4519],[-53.5888,-32.4352],[-53.6002,-32.4306],[-53.6048,-32.4241],[-53.615,-32.4166],[-53.6127,-32.403],[-53.6144,-32.3984],[-53.6279,-32.3891],[-53.6452,-32.3839],[-53.6433,-32.3671],[-53.6338,-32.3559],[-53.6333,-32.3503],[-53.6445,-32.3342],[-53.6438,-32.3243],[-53.6554,-32.3194],[-53.6571,-32.3157],[-53.6554,-32.3115],[-53.6474,-32.3122],[-53.6428,-32.297],[-53.6441,-32.2952],[-53.6556,-32.2906],[-53.6572,-32.2888],[-53.6557,-32.2803],[-53.6572,-32.2776],[-53.6588,-32.2756],[-53.6651,-32.2747],[-53.6673,-32.2701],[-53.6706,-32.2681],[-53.6778,-32.2586],[-53.6767,-32.2531],[-53.6795,-32.2418],[-53.6765,-32.2382],[-53.678,-32.2325],[-53.6852,-32.2196],[-53.6941,-32.2117],[-53.6926,-32.2076],[-53.6937,-32.2052],[-53.6959,-32.2035],[-53.6988,-32.2039],[-53.704,-32.207],[-53.7115,-32.1985],[-53.7106,-32.1958],[-53.7043,-32.1929],[-53.7027,-32.1892],[-53.7054,-32.1868],[-53.7107,-32.1887],[-53.7141,-32.1877],[-53.7134,-32.1767],[-53.7236,-32.1735],[-53.7231,-32.1693],[-53.7191,-32.1642],[-53.7177,-32.1531],[-53.7232,-32.1509],[-53.7309,-32.1529],[-53.735,-32.1519],[-53.7348,-32.15],[-53.726,-32.1456],[-53.7257,-32.1406],[-53.7442,-32.1154],[-53.7407,-32.1127],[-53.7376,-32.1063],[-53.7405,-32.1037],[-53.74,-32.1005],[-53.7383,-32.1002],[-53.7318,-32.1058],[-53.7271,-32.1009],[-53.7252,-32.0961],[-53.7354,-32.0926],[-53.745,-32.0916],[-53.7466,-32.0892],[-53.7468,-32.0778],[-53.754,-32.0792],[-53.757,-32.0762],[-53.765,-32.0793],[-53.7689,-32.0767],[-53.7697,-32.0731],[-53.7774,-32.0719],[-53.7812,-32.0697],[-53.783,-32.0719],[-53.7882,-32.0709],[-53.7902,-32.0718],[-53.7913,-32.0707],[-53.7894,-32.0686],[-53.7915,-32.0677],[-53.8018,-32.071],[-53.8069,-32.0702],[-53.8149,-32.0626],[-53.8149,-32.0591],[-53.8276,-32.0595],[-53.8309,-32.0558],[-53.8338,-32.0552],[-53.8367,-32.0506],[-53.8336,-32.046],[-53.8345,-32.0425],[-53.836,-32.0402],[-53.8426,-32.0397],[-53.8435,-32.0385],[-53.8409,-32.0342],[-53.8385,-32.0332],[-53.847,-32.0295],[-53.8527,-32.03],[-53.8513,-32.0265],[-53.854,-32.0217],[-53.8516,-32.0137],[-53.8543,-32.0105],[-53.8535,-32.006],[-53.8498,-32.0006],[-53.8535,-31.9999],[-53.8572,-31.9967],[-53.8607,-31.9973],[-53.8602,-31.995],[-53.8634,-31.9961],[-53.8641,-31.9929],[-53.8708,-31.9955],[-53.8701,-31.9978],[-53.872,-31.9991],[-53.8793,-31.995],[-53.8912,-31.9956],[-53.893,-31.9928],[-53.8916,-31.9891],[-53.8968,-31.985],[-53.8965,-31.9811],[-53.8984,-31.9785],[-53.9026,-31.9791],[-53.9067,-31.9761],[-53.9132,-31.9657],[-53.9164,-31.9659],[-53.9175,-31.9642],[-53.9227,-31.963],[-53.926,-31.9635],[-53.9261,-31.962],[-53.932,-31.9632],[-53.9327,-31.9609],[-53.9364,-31.9585],[-53.9419,-31.9588],[-53.9481,-31.9543],[-53.9541,-31.957],[-53.9577,-31.9549],[-53.9607,-31.9553],[-53.9619,-31.9519],[-53.9662,-31.9499],[-53.9683,-31.9432],[-53.9726,-31.9395],[-53.9711,-31.9351],[-53.9672,-31.9368],[-53.9667,-31.9334],[-53.9642,-31.9332],[-53.9646,-31.9301],[-53.9618,-31.9306],[-53.963,-31.923],[-53.9646,-31.9215],[-53.969,-31.9225],[-53.9696,-31.921],[-53.9673,-31.9203],[-53.9697,-31.9177],[-53.9712,-31.919],[-53.9762,-31.9174],[-53.978,-31.9182],[-53.9812,-31.916],[-53.9842,-31.9175],[-53.9879,-31.9165],[-53.9898,-31.9175],[-53.9922,-31.9145],[-53.9942,-31.9154],[-53.9978,-31.9138],[-53.9999,-31.9153],[-54.0016,-31.9133],[-54.0043,-31.9146],[-54.0068,-31.9125],[-54.0068,-31.9081],[-54.0156,-31.9084],[-54.0165,-31.9063],[-54.0134,-31.9072],[-54.0122,-31.9051],[-54.0184,-31.904],[-54.0153,-31.9023],[-54.0158,-31.9014],[-54.0234,-31.9016],[-54.0234,-31.8982],[-54.0264,-31.8969],[-54.0322,-31.8987],[-54.0313,-31.8962],[-54.0328,-31.8954],[-54.0343,-31.8973],[-54.0405,-31.8969],[-54.0427,-31.9011],[-54.0453,-31.9037],[-54.0481,-31.9033],[-54.0489,-31.9056],[-54.0515,-31.9039],[-54.0538,-31.9053],[-54.0568,-31.9091],[-54.0558,-31.9112],[-54.0572,-31.9141],[-54.0588,-31.9133],[-54.0625,-31.9157],[-54.0628,-31.919],[-54.067,-31.923],[-54.07,-31.9225],[-54.0725,-31.9188],[-54.0773,-31.9211],[-54.0807,-31.9243],[-54.0799,-31.9286],[-54.0879,-31.9311],[-54.0867,-31.935],[-54.0897,-31.9351],[-54.0916,-31.9303],[-54.0947,-31.9311],[-54.0981,-31.9282],[-54.1002,-31.9282],[-54.1016,-31.9263],[-54.1002,-31.9243],[-54.1074,-31.9179],[-54.1054,-31.9123],[-54.1085,-31.912],[-54.1083,-31.9096],[-54.1101,-31.9081],[-54.1156,-31.9068],[-54.1161,-31.9046],[-54.1209,-31.9034],[-54.1246,-31.8999],[-54.133,-31.896],[-54.1346,-31.8981],[-54.1404,-31.8949],[-54.1442,-31.8884],[-54.1424,-31.8859],[-54.1446,-31.8818],[-54.1541,-31.8784],[-54.1583,-31.8735],[-54.4564,-31.6517],[-54.4516,-31.6402],[-54.4519,-31.6389],[-54.4533,-31.639],[-54.4531,-31.6365],[-54.455,-31.6355],[-54.4541,-31.6293],[-54.4574,-31.6294],[-54.4613,-31.6267],[-54.4604,-31.622],[-54.4627,-31.6218],[-54.465,-31.6187],[-54.4635,-31.6139],[-54.4669,-31.6131],[-54.4652,-31.609],[-54.4622,-31.6085],[-54.4608,-31.606],[-54.457,-31.6067],[-54.4574,-31.6013],[-54.4532,-31.6032],[-54.4528,-31.5996],[-54.4589,-31.5975],[-54.4581,-31.5943],[-54.4629,-31.5924],[-54.4644,-31.5881],[-54.4652,-31.5912],[-54.469,-31.593],[-54.4691,-31.5828],[-54.4732,-31.5705],[-54.481,-31.5696],[-54.4842,-31.5659],[-54.4885,-31.5648],[-54.4937,-31.5587],[-54.4904,-31.5505],[-54.4964,-31.5405],[-54.5014,-31.5378],[-54.5036,-31.5257],[-54.5098,-31.5214],[-54.5157,-31.5102],[-54.5189,-31.5109],[-54.5208,-31.5084],[-54.5239,-31.5105],[-54.5244,-31.5049],[-54.528,-31.5057],[-54.5325,-31.502],[-54.547,-31.499],[-54.553,-31.492],[-54.557,-31.495],[-54.5606,-31.4872],[-54.5758,-31.4814],[-54.5782,-31.4685],[-54.5828,-31.4662],[-54.5879,-31.4603],[-54.5868,-31.4566],[-54.6706,-31.4538],[-54.683,-31.445],[-54.6937,-31.4453],[-54.6967,-31.438],[-54.6991,-31.436],[-54.7016,-31.4355],[-54.7037,-31.4393],[-54.7116,-31.4398],[-54.7147,-31.437],[-54.7156,-31.4383],[-54.7193,-31.4385],[-54.7215,-31.437],[-54.7248,-31.4296],[-54.7358,-31.4297],[-54.7391,-31.4256],[-54.7508,-31.4274],[-54.7522,-31.4245],[-54.7597,-31.4256],[-54.761,-31.4269],[-54.7688,-31.426],[-54.7891,-31.4333],[-54.7895,-31.4348],[-54.7968,-31.43],[-54.7994,-31.4325],[-54.8051,-31.429],[-54.812,-31.4319],[-54.812,-31.4349],[-54.8297,-31.4374],[-54.8328,-31.4408],[-54.8367,-31.442],[-54.8478,-31.4305],[-54.851,-31.4251],[-54.8552,-31.4237],[-54.8574,-31.4182],[-54.8617,-31.4179],[-54.8581,-31.4081],[-54.8688,-31.4017],[-54.8783,-31.3981],[-54.8876,-31.3833],[-54.8869,-31.3809],[-54.8845,-31.3811],[-54.8862,-31.3773],[-54.8905,-31.3773],[-54.892,-31.3748],[-54.8998,-31.3763],[-54.8982,-31.3814],[-54.905,-31.3841],[-54.9073,-31.3814],[-54.9125,-31.3797],[-54.9146,-31.3811],[-54.9184,-31.3789],[-54.9211,-31.379],[-54.9281,-31.3845],[-54.9314,-31.3837],[-54.9327,-31.3851],[-54.9409,-31.3807],[-54.9413,-31.3793],[-54.9381,-31.3763],[-54.9402,-31.3753],[-54.9373,-31.3702],[-54.934,-31.3694],[-54.9354,-31.3644],[-54.937,-31.3643],[-54.9352,-31.3565],[-54.9389,-31.3541],[-54.9494,-31.3539],[-54.9517,-31.3517],[-54.9531,-31.3546],[-54.9565,-31.3535],[-54.9568,-31.3517],[-54.9602,-31.3515],[-54.9604,-31.342],[-54.9589,-31.3396],[-54.953,-31.3393],[-54.9533,-31.3319],[-54.9596,-31.3233],[-54.9751,-31.3169],[-54.9788,-31.3171],[-54.9805,-31.3125],[-54.9829,-31.3115],[-54.9801,-31.3031],[-54.9824,-31.2961],[-54.9857,-31.2925],[-54.9892,-31.2942],[-54.989,-31.292],[-54.9957,-31.2885],[-54.9948,-31.2831],[-55.0006,-31.283],[-55.0024,-31.2693],[-55.0072,-31.2669],[-55.0085,-31.27],[-55.0123,-31.268],[-55.0153,-31.2693],[-55.0203,-31.2671],[-55.0235,-31.2695],[-55.0319,-31.2698],[-55.0325,-31.2737],[-55.0366,-31.2757],[-55.0318,-31.2787],[-55.0359,-31.2841],[-55.0328,-31.2896],[-55.0335,-31.2915],[-55.0365,-31.2915],[-55.0399,-31.3027],[-55.0435,-31.3053],[-55.0424,-31.3071],[-55.0433,-31.3085],[-55.0478,-31.3073],[-55.0484,-31.3094],[-55.0528,-31.3111],[-55.0531,-31.314],[-55.0587,-31.3142],[-55.0601,-31.3155],[-55.0572,-31.3194],[-55.0576,-31.3222],[-55.0618,-31.3247],[-55.0574,-31.3318],[-55.0643,-31.3318],[-55.0659,-31.3302],[-55.0745,-31.3322],[-55.0778,-31.3278],[-55.0806,-31.3271],[-55.0812,-31.3245],[-55.086,-31.3228],[-55.0858,-31.3212],[-55.0879,-31.3198],[-55.0902,-31.3207],[-55.0918,-31.3178],[-55.0985,-31.3163],[-55.0989,-31.3146],[-55.1028,-31.3151],[-55.1087,-31.3077],[-55.1139,-31.3113],[-55.1221,-31.3129],[-55.1224,-31.3049],[-55.1257,-31.3025],[-55.1365,-31.3014],[-55.1397,-31.2981],[-55.1523,-31.2933],[-55.1525,-31.2893],[-55.1566,-31.2855],[-55.1605,-31.2844],[-55.1635,-31.2857],[-55.1662,-31.2811],[-55.1629,-31.2792],[-55.164,-31.2761],[-55.1694,-31.2719],[-55.1693,-31.2695],[-55.1741,-31.2682],[-55.18,-31.2705],[-55.1798,-31.2689],[-55.1829,-31.2677],[-55.1837,-31.2654],[-55.1933,-31.2647],[-55.1953,-31.2634],[-55.1957,-31.2645],[-55.1992,-31.2643],[-55.2023,-31.262],[-55.2136,-31.2632],[-55.2352,-31.2584],[-55.238,-31.2617],[-55.24,-31.2606],[-55.239,-31.2575],[-55.2403,-31.2537],[-55.2467,-31.2523],[-55.2485,-31.2482],[-55.2465,-31.2333],[-55.2489,-31.2273],[-55.2474,-31.2246],[-55.2488,-31.2185],[-55.2476,-31.216],[-55.2485,-31.214],[-55.25,-31.2159],[-55.2514,-31.2152],[-55.254,-31.2112],[-55.2501,-31.2061],[-55.2537,-31.2041],[-55.257,-31.1983],[-55.2617,-31.1966],[-55.2628,-31.1947],[-55.2709,-31.1961],[-55.2734,-31.1943],[-55.2827,-31.194],[-55.2837,-31.1881],[-55.2857,-31.1855],[-55.2819,-31.184],[-55.2764,-31.1785],[-55.2718,-31.1787],[-55.2709,-31.177],[-55.2718,-31.1729],[-55.2747,-31.1702],[-55.2761,-31.1715],[-55.2807,-31.1698],[-55.2849,-31.1664],[-55.2844,-31.1647],[-55.2889,-31.1659],[-55.2889,-31.1643],[-55.2909,-31.1637],[-55.2893,-31.1612],[-55.2904,-31.1593],[-55.2853,-31.1564],[-55.2908,-31.1502],[-55.2899,-31.1453],[-55.2912,-31.1423],[-55.2944,-31.1443],[-55.2978,-31.1444],[-55.3055,-31.141],[-55.307,-31.1435],[-55.3132,-31.1471],[-55.3141,-31.1458],[-55.3189,-31.1451],[-55.3182,-31.14],[-55.3211,-31.1359],[-55.3265,-31.138],[-55.3346,-31.1329],[-55.3387,-31.1337],[-55.3404,-31.1314],[-55.3385,-31.1303],[-55.3398,-31.1271],[-55.3373,-31.1199],[-55.33,-31.1166],[-55.3314,-31.1128],[-55.3289,-31.1104],[-55.3341,-31.105],[-55.3337,-31.0987],[-55.3322,-31.0953],[-55.3286,-31.0935],[-55.3299,-31.092],[-55.3277,-31.0882],[-55.3392,-31.0851],[-55.3497,-31.0724],[-55.35,-31.0679],[-55.3525,-31.0705],[-55.3599,-31.0675],[-55.3594,-31.0633],[-55.3531,-31.0572],[-55.3492,-31.0428],[-55.3498,-31.0392],[-55.3516,-31.0376],[-55.3598,-31.0402],[-55.3629,-31.039],[-55.3639,-31.0357],[-55.3696,-31.0344],[-55.3737,-31.028],[-55.3716,-31.0234],[-55.374,-31.0192],[-55.3755,-31.0217],[-55.3802,-31.0236],[-55.3868,-31.0203],[-55.3929,-31.0257],[-55.4003,-31.0286],[-55.401,-31.0272],[-55.405,-31.0272],[-55.4071,-31.0187],[-55.4115,-31.0176],[-55.4153,-31.0145],[-55.4217,-31.0163],[-55.4231,-31.0182],[-55.4248,-31.0165],[-55.4252,-31.0118],[-55.4309,-31.0102],[-55.4312,-31.0077],[-55.4373,-31.0047],[-55.4347,-31.001],[-55.4377,-30.9943],[-55.4362,-30.9922],[-55.4326,-30.9929],[-55.429,-30.99],[-55.4293,-30.9867],[-55.4252,-30.985],[-55.4331,-30.9726],[-55.436,-30.9715],[-55.4383,-30.9725],[-55.4378,-30.9693],[-55.4414,-30.9597],[-55.4444,-30.9585],[-55.4524,-30.9603],[-55.4522,-30.9579],[-55.4574,-30.9514],[-55.4636,-30.9501],[-55.469,-30.9546],[-55.4748,-30.9525],[-55.4783,-30.9536],[-55.4868,-30.9476],[-55.4874,-30.9423],[-55.49,-30.9395],[-55.4896,-30.9336],[-55.4865,-30.9283],[-55.4884,-30.9257],[-55.4938,-30.9246],[-55.499,-30.9269],[-55.5043,-30.9244],[-55.51,-30.9113],[-55.5103,-30.9062],[-55.508,-30.9043],[-55.5101,-30.9018],[-55.5169,-30.8987],[-55.5248,-30.898],[-55.527,-30.9],[-55.5291,-30.8993],[-55.5324,-30.9024],[-55.5336,-30.8973],[-55.5458,-30.8906],[-55.5517,-30.8827],[-55.5517,-30.8768],[-55.5546,-30.8726],[-55.5631,-30.8683],[-55.5642,-30.8532],[-55.5675,-30.8461],[-55.5716,-30.8456],[-55.5789,-30.8395],[-55.5774,-30.8331],[-55.5815,-30.8343],[-55.5867,-30.8411],[-55.6048,-30.8496],[-55.611,-30.8482],[-55.6132,-30.8432],[-55.6188,-30.8417],[-55.6225,-30.8418],[-55.624,-30.8454],[-55.6289,-30.848],[-55.6327,-30.8452],[-55.6367,-30.846],[-55.6431,-30.85],[-55.6463,-30.8539],[-55.6457,-30.8586],[-55.649,-30.8651],[-55.6583,-30.864],[-55.6607,-30.869],[-55.6605,-30.8744],[-55.6589,-30.8786],[-55.6529,-30.8833],[-55.6554,-30.8854],[-55.6533,-30.8896],[-55.654,-30.8965],[-55.652,-30.8967],[-55.6508,-30.9012],[-55.6489,-30.9014],[-55.6483,-30.9027],[-55.65,-30.9043],[-55.6423,-30.9116],[-55.6486,-30.923],[-55.6516,-30.923],[-55.6551,-30.9252],[-55.6635,-30.9332],[-55.6586,-30.9438],[-55.6621,-30.9482],[-55.6638,-30.9468],[-55.6651,-30.9475],[-55.6645,-30.9511],[-55.6662,-30.954],[-55.669,-30.9533],[-55.6717,-30.9553],[-55.6765,-30.956],[-55.6883,-30.9522],[-55.6887,-30.9445],[-55.6933,-30.9437],[-55.6973,-30.9466],[-55.6973,-30.9482],[-55.7005,-30.9496],[-55.7038,-30.9553],[-55.7093,-30.9544],[-55.7113,-30.9498],[-55.7157,-30.9468],[-55.7171,-30.9425],[-55.7232,-30.9427],[-55.721,-30.9456],[-55.7244,-30.9532],[-55.7223,-30.9576],[-55.7253,-30.9631],[-55.7248,-30.967],[-55.7274,-30.9685],[-55.7311,-30.9742],[-55.7285,-30.9797],[-55.7334,-30.9812],[-55.7422,-30.9787],[-55.7462,-30.9793],[-55.7474,-30.9808],[-55.7458,-30.9856],[-55.75,-30.9914],[-55.7523,-30.9981],[-55.7627,-30.9996],[-55.7667,-30.9973],[-55.773,-30.997],[-55.774,-31.0],[-55.7675,-31.0038],[-55.7665,-31.0102],[-55.7758,-31.0153],[-55.7801,-31.015],[-55.7807,-31.017],[-55.7943,-31.0156],[-55.8135,-31.016],[-55.8125,-31.0198],[-55.815,-31.0255],[-55.8292,-31.0428],[-55.8317,-31.0442],[-55.8354,-31.0429],[-55.8475,-31.0429],[-55.8565,-31.0459],[-55.8705,-31.0703],[-55.8834,-31.0765],[-55.8888,-31.0766],[-55.8948,-31.0733],[-55.8982,-31.0671],[-55.9107,-31.0747],[-55.9191,-31.0743],[-55.9253,-31.0763],[-55.9301,-31.0859],[-55.9335,-31.0872],[-55.9383,-31.0862],[-55.9448,-31.0822],[-55.9787,-31.0733],[-55.9843,-31.0754],[-55.9929,-31.0851],[-56.0028,-31.0824],[-56.0097,-31.0824],[-56.0071,-31.0751],[-56.0078,-31.0714],[-56.0125,-31.0628],[-56.0155,-31.0512],[-56.0184,-31.0481],[-56.0174,-31.0309],[-56.0144,-31.0211],[-56.0182,-31.0099],[-56.0166,-31.0062],[-56.0177,-31.003],[-56.0129,-30.994],[-56.013,-30.9898],[-56.0071,-30.9837],[-56.0109,-30.9788],[-56.0057,-30.9732],[-56.0112,-30.9685],[-56.0102,-30.9567],[-56.0129,-30.9534],[-56.0095,-30.9473],[-56.0153,-30.9449],[-56.0152,-30.9428],[-56.0105,-30.9379],[-56.0103,-30.9273],[-56.0055,-30.9224],[-56.006,-30.9192],[-56.0112,-30.912],[-56.0082,-30.9059],[-56.0082,-30.8943],[-56.0008,-30.8828],[-55.9982,-30.8743],[-55.9928,-30.8668],[-55.9897,-30.8593],[-55.9919,-30.8481],[-55.9944,-30.8452],[-56.0047,-30.8394],[-56.0056,-30.8336],[-56.0043,-30.8298],[-56.0088,-30.8201],[-56.0168,-30.8178],[-56.0165,-30.8117],[-56.0127,-30.8067],[-56.0156,-30.8025],[-56.0244,-30.7988],[-56.0246,-30.7947],[-56.021,-30.7911],[-56.0224,-30.7857],[-56.0353,-30.7836],[-56.0384,-30.7784],[-56.037,-30.7765],[-56.0388,-30.7749],[-56.0466,-30.7736],[-56.0482,-30.776],[-56.0503,-30.7762],[-56.0563,-30.7731],[-56.0618,-30.7746],[-56.0665,-30.7637],[-56.064,-30.7607],[-56.0662,-30.7583],[-56.0647,-30.7508],[-56.0683,-30.7468],[-56.074,-30.745],[-56.0851,-30.7556],[-56.0886,-30.7572],[-56.0962,-30.7529],[-56.0969,-30.7479],[-56.1001,-30.7445],[-56.1024,-30.7442],[-56.1022,-30.7406],[-56.1067,-30.7317],[-56.118,-30.7334],[-56.1185,-30.7369],[-56.1238,-30.739],[-56.1322,-30.732],[-56.1308,-30.7237],[-56.128,-30.7206],[-56.1301,-30.7162],[-56.1364,-30.7095],[-56.1377,-30.7104],[-56.1505,-30.7048],[-56.1491,-30.7018],[-56.15,-30.6939],[-56.1383,-30.6878],[-56.1374,-30.6839],[-56.1436,-30.6793],[-56.1455,-30.681],[-56.1517,-30.6803],[-56.1645,-30.6665],[-56.169,-30.6579],[-56.1696,-30.6531],[-56.1646,-30.6428],[-56.1735,-30.6345],[-56.1805,-30.6322],[-56.1803,-30.6301],[-56.1824,-30.6278],[-56.1826,-30.6252],[-56.1795,-30.6223],[-56.1721,-30.6197],[-56.1707,-30.6152],[-56.178,-30.6124],[-56.1883,-30.6046],[-56.1953,-30.6039],[-56.2154,-30.6086],[-56.2192,-30.6075],[-56.2242,-30.597],[-56.2341,-30.5938],[-56.2348,-30.5879],[-56.2262,-30.5866],[-56.2239,-30.5842],[-56.2258,-30.5783],[-56.2294,-30.5781],[-56.2357,-30.5741],[-56.2415,-30.5734],[-56.2461,-30.5747],[-56.2503,-30.5783],[-56.2552,-30.5876],[-56.261,-30.5851],[-56.2621,-30.5826],[-56.2598,-30.5801],[-56.2617,-30.5723],[-56.2605,-30.5695],[-56.2561,-30.5671],[-56.2577,-30.562],[-56.2653,-30.5544],[-56.2754,-30.5605],[-56.2816,-30.5602],[-56.2783,-30.5533],[-56.2879,-30.541],[-56.2894,-30.5294],[-56.2869,-30.5293],[-56.2864,-30.5279],[-56.2919,-30.5197],[-56.296,-30.5255],[-56.2999,-30.5252],[-56.3065,-30.5301],[-56.3116,-30.5309],[-56.3157,-30.5295],[-56.3222,-30.5313],[-56.3245,-30.5284],[-56.3284,-30.5295],[-56.332,-30.5241],[-56.336,-30.5236],[-56.3371,-30.5191],[-56.3334,-30.5166],[-56.3348,-30.5117],[-56.349,-30.5037],[-56.3494,-30.497],[-56.3559,-30.4912],[-56.3645,-30.4921],[-56.3649,-30.4964],[-56.3632,-30.498],[-56.3619,-30.4958],[-56.3599,-30.4962],[-56.3597,-30.4998],[-56.3666,-30.5028],[-56.3753,-30.5004],[-56.3771,-30.5018],[-56.3818,-30.4996],[-56.3838,-30.4962],[-56.389,-30.4933],[-56.3839,-30.4929],[-56.3845,-30.4907],[-56.3875,-30.4902],[-56.3859,-30.4871],[-56.3953,-30.4849],[-56.3969,-30.4789],[-56.3957,-30.472],[-56.398,-30.4714],[-56.4015,-30.4743],[-56.406,-30.4693],[-56.4065,-30.4597],[-56.4013,-30.4604],[-56.3992,-30.456],[-56.3993,-30.4515],[-56.3971,-30.4495],[-56.3994,-30.447],[-56.4052,-30.4475],[-56.4086,-30.4457],[-56.4135,-30.4395],[-56.4161,-30.4309],[-56.4202,-30.4325],[-56.4234,-30.4312],[-56.4262,-30.4347],[-56.4286,-30.4347],[-56.4394,-30.4321],[-56.4458,-30.4255],[-56.4534,-30.4226],[-56.4524,-30.4198],[-56.4447,-30.4156],[-56.4444,-30.4127],[-56.4542,-30.4013],[-56.4561,-30.3907],[-56.4613,-30.3849],[-56.467,-30.3853],[-56.4768,-30.3893],[-56.4805,-30.3925],[-56.4837,-30.3987],[-56.4899,-30.3984],[-56.4916,-30.3974],[-56.4962,-30.3869],[-56.507,-30.3816],[-56.5046,-30.3712],[-56.5138,-30.3659],[-56.5187,-30.3602],[-56.522,-30.3588],[-56.5289,-30.3603],[-56.5363,-30.3592],[-56.5434,-30.3613],[-56.5471,-30.3595],[-56.5447,-30.3565],[-56.5442,-30.3526],[-56.5495,-30.3469],[-56.5509,-30.3417],[-56.5369,-30.3344],[-56.537,-30.3312],[-56.5403,-30.3263],[-56.5411,-30.3129],[-56.5461,-30.3112],[-56.5545,-30.3197],[-56.5564,-30.3195],[-56.563,-30.3112],[-56.5759,-30.303],[-56.5742,-30.2918],[-56.5764,-30.2888],[-56.585,-30.2897],[-56.5975,-30.2952],[-56.6057,-30.2925],[-56.6124,-30.2997],[-56.6156,-30.3014],[-56.6187,-30.3005],[-56.6209,-30.2938],[-56.6111,-30.2881],[-56.6068,-30.2826],[-56.6106,-30.2657],[-56.6149,-30.2612],[-56.6246,-30.266],[-56.6292,-30.266],[-56.6396,-30.2585],[-56.6401,-30.2551],[-56.6309,-30.2549],[-56.625,-30.2498],[-56.6244,-30.2462],[-56.6417,-30.2338],[-56.6449,-30.2247],[-56.6496,-30.2205],[-56.6518,-30.2196],[-56.6644,-30.2218],[-56.668,-30.2184],[-56.6574,-30.2131],[-56.6489,-30.2116],[-56.6452,-30.2077],[-56.6463,-30.2035],[-56.6498,-30.2072],[-56.6519,-30.2072],[-56.6619,-30.1977],[-56.6787,-30.2002],[-56.6817,-30.1944],[-56.6974,-30.2049],[-56.7003,-30.1976],[-56.708,-30.1886],[-56.7046,-30.1792],[-56.7053,-30.1764],[-56.7113,-30.1761],[-56.7188,-30.18],[-56.7294,-30.1719],[-56.7368,-30.1706],[-56.7589,-30.161],[-56.7632,-30.161],[-56.7726,-30.1645],[-56.7775,-30.1629],[-56.7821,-30.1587],[-56.7847,-30.151],[-56.7812,-30.145],[-56.7779,-30.1338],[-56.7797,-30.1275],[-56.7809,-30.1262],[-56.8001,-30.1218],[-56.8042,-30.1065],[-56.807,-30.1039],[-56.8095,-30.1032],[-56.813,-30.1072],[-56.8163,-30.1073],[-56.8188,-30.106],[-56.8214,-30.0993],[-56.8247,-30.0956],[-56.8336,-30.0923],[-56.8505,-30.089],[-56.8646,-30.0902],[-56.8718,-30.0939],[-56.8738,-30.0922],[-56.8732,-30.0883],[-56.8746,-30.0863],[-56.88,-30.0886],[-56.8873,-30.0882],[-56.8942,-30.104],[-56.905,-30.1135],[-56.9066,-30.1118],[-56.9049,-30.1094],[-56.9058,-30.1075],[-56.9096,-30.1079],[-56.9129,-30.111],[-56.9155,-30.1103],[-56.9111,-30.1017],[-56.916,-30.0971],[-56.9314,-30.094],[-56.9548,-30.1011],[-56.968,-30.0977],[-56.9763,-30.0976],[-56.9825,-30.0889],[-56.9859,-30.0873],[-56.9941,-30.0859],[-57.0043,-30.0877],[-57.0223,-30.0873],[-57.0291,-30.0933],[-57.0316,-30.1024],[-57.0443,-30.1056],[-57.048,-30.1044],[-57.0511,-30.1008],[-57.0572,-30.0986],[-57.0659,-30.1013],[-57.0684,-30.1005],[-57.0692,-30.0987],[-57.0667,-30.0905],[-57.0618,-30.0896]]]}}]}